[{"OBJECT_NAME":"TRANSPORTER-12 OBJECT BA","OBJECT_ID":"2025-009BA","EPOCH":"2026-03-09T16:49:42.568896","MEAN_MOTION":15.27214003,"ECCENTRICITY":4.03e-5,"INCLINATION":97.3985,"RA_OF_ASC_NODE":151.139,"ARG_OF_PERICENTER":234.6623,"MEAN_ANOMALY":125.4579,"EPHEMERIS_TYPE":0,"CLASSIFICATION_TYPE":"U","NORAD_CAT_ID":62657,"ELEMENT_SET_NO":999,"REV_AT_EPOCH":6373,"BSTAR":0.00042732654,"MEAN_MOTION_DOT":0.0001133,"MEAN_MOTION_DDOT":0},{"OBJECT_NAME":"STARLINK-33781","OBJECT_ID":"2025-092Y","EPOCH":"2026-03-08T15:50:16.433952","MEAN_MOTION":15.27570338,"ECCENTRICITY":0.00012734,"INCLINATION":43.0014,"RA_OF_ASC_NODE":178.6611,"ARG_OF_PERICENTER":244.9991,"MEAN_ANOMALY":115.0728,"EPHEMERIS_TYPE":0,"CLASSIFICATION_TYPE":"U","NORAD_CAT_ID":63826,"ELEMENT_SET_NO":999,"REV_AT_EPOCH":4850,"BSTAR":0.0010639619,"MEAN_MOTION_DOT":0.00029123,"MEAN_MOTION_DDOT":0}]
