TRANSPORTER-12 OBJECT BA
1 62657U 25009BA  26068.70118713  .00011330  00000+0  42733-3 0  9991
2 62657  97.3985 151.1390 0000403 234.6623 125.4579 15.27214003 63739
STARLINK-33781          
1 63826U 25092Y   26067.65991243  .00029123  00000+0  10640-2 0  9992
2 63826  43.0014 178.6611 0001273 244.9991 115.0728 15.27570338 48502
